start=new Date('2022-05-17T00:00:00.000Z').valueOf();
sats=[{"TLE_LINE2":"2 45714  53.0531 171.3207 0002034  41.0671 319.0470 15.06398733109154","SITE":"AFETR","RA_OF_ASC_NODE":"171.3207","RCS_SIZE":"LARGE","REF_FRAME":"TEME","OBJECT_ID":"2020-035BK","OBJECT_NAME":"STARLINK-1437","ELEMENT_SET_NO":"999","BSTAR":"0.00011793000000","CLASSIFICATION_TYPE":"U","REV_AT_EPOCH":"10915","PERIAPSIS":"545.809","COUNTRY_CODE":"US","OBJECT_TYPE":"PAYLOAD","DECAY_DATE":null,"MEAN_ANOMALY":"319.0470","CENTER_NAME":"EARTH","GP_ID":"203696087","INCLINATION":"53.0531","LAUNCH_DATE":"2020-06-04","NORAD_CAT_ID":"45714","MEAN_MOTION":"15.06398733","SEMIMAJOR_AXIS":"6925.352","ECCENTRICITY":"0.00020340","PERIOD":"95.592","ARG_OF_PERICENTER":"41.0671","MEAN_MOTION_DDOT":"0.0000000000000","MEAN_MOTION_DOT":"0.00001475","EPOCH":"2022-05-16T09:42:04.939776","TIME_SYSTEM":"UTC","MEAN_ELEMENT_THEORY":"SGP4","FILE":"3448591","EPHEMERIS_TYPE":"0","APOAPSIS":"548.626","TLE_LINE1":"1 45714U 20035BK  22136.40422384  .00001475  00000-0  11793-3 0  9993"},{"APOAPSIS":"548.346","TLE_LINE1":"1 45730U 20038A   22136.34893563  .00000274  00000-0  37300-4 0  9997","FILE":"3448591","MEAN_ELEMENT_THEORY":"SGP4","EPHEMERIS_TYPE":"0","SEMIMAJOR_AXIS":"6925.372","ECCENTRICITY":"0.00016020","PERIOD":"95.593","MEAN_MOTION":"15.06392341","TIME_SYSTEM":"UTC","EPOCH":"2022-05-16T08:22:28.038432","MEAN_MOTION_DOT":"0.00000274","ARG_OF_PERICENTER":"64.1574","MEAN_MOTION_DDOT":"0.0000000000000","DECAY_DATE":null,"MEAN_ANOMALY":"295.9580","NORAD_CAT_ID":"45730","INCLINATION":"53.0570","GP_ID":"203694846","LAUNCH_DATE":"2020-06-13","CENTER_NAME":"EARTH","OBJECT_NAME":"STARLINK-1461","RCS_SIZE":"LARGE","REF_FRAME":"TEME","OBJECT_ID":"2020-038A","TLE_LINE2":"2 45730  53.0570  11.5730 0001602  64.1574 295.9580 15.06392341106193","SITE":"AFETR","RA_OF_ASC_NODE":"11.5730","OBJECT_TYPE":"PAYLOAD","COUNTRY_CODE":"US","PERIAPSIS":"546.128","REV_AT_EPOCH":"10619","CLASSIFICATION_TYPE":"U","BSTAR":"0.00003730000000","ELEMENT_SET_NO":"999"},{"CLASSIFICATION_TYPE":"U","ELEMENT_SET_NO":"999","BSTAR":"0.00006939900000","COUNTRY_CODE":"US","OBJECT_TYPE":"PAYLOAD","PERIAPSIS":"546.204","REV_AT_EPOCH":"10613","SITE":"AFETR","TLE_LINE2":"2 45731  53.0556  12.9935 0001511  61.0660 299.0481 15.06388094106130","RA_OF_ASC_NODE":"12.9935","OBJECT_NAME":"STARLINK-1465","RCS_SIZE":"LARGE","REF_FRAME":"TEME","OBJECT_ID":"2020-038B","CENTER_NAME":"EARTH","NORAD_CAT_ID":"45731","GP_ID":"203695096","LAUNCH_DATE":"2020-06-13","INCLINATION":"53.0556","DECAY_DATE":null,"MEAN_ANOMALY":"299.0481","MEAN_MOTION_DDOT":"0.0000000000000","ARG_OF_PERICENTER":"61.0660","EPOCH":"2022-05-16T00:46:00.270912","TIME_SYSTEM":"UTC","MEAN_MOTION_DOT":"0.00000752","SEMIMAJOR_AXIS":"6925.385","ECCENTRICITY":"0.00015110","PERIOD":"95.593","MEAN_MOTION":"15.06388094","FILE":"3448591","EPHEMERIS_TYPE":"0","MEAN_ELEMENT_THEORY":"SGP4","APOAPSIS":"548.296","TLE_LINE1":"1 45731U 20038B   22136.03194758  .00000752  00000-0  69399-4 0  9998"},{"RA_OF_ASC_NODE":"11.5482","SITE":"AFETR","TLE_LINE2":"2 45732  53.0568  11.5482 0001646  61.6351 298.4803 15.06402531106187","OBJECT_ID":"2020-038C","REF_FRAME":"TEME","RCS_SIZE":"LARGE","OBJECT_NAME":"STARLINK-1466","ELEMENT_SET_NO":"999","BSTAR":"0.00000640120000","CLASSIFICATION_TYPE":"U","REV_AT_EPOCH":"10618","OBJECT_TYPE":"PAYLOAD","COUNTRY_CODE":"US","PERIAPSIS":"546.066","MEAN_ANOMALY":"298.4803","DECAY_DATE":null,"CENTER_NAME":"EARTH","GP_ID":"203696347","INCLINATION":"53.0568","LAUNCH_DATE":"2020-06-13","NORAD_CAT_ID":"45732","MEAN_MOTION":"15.06402531","PERIOD":"95.592","ECCENTRICITY":"0.00016460","SEMIMAJOR_AXIS":"6925.341","MEAN_MOTION_DDOT":"0.0000000000000","ARG_OF_PERICENTER":"61.6351","MEAN_MOTION_DOT":"-0.00000186","TIME_SYSTEM":"UTC","EPOCH":"2022-05-16T08:27:46.058688","FILE":"3448591","EPHEMERIS_TYPE":"0","MEAN_ELEMENT_THEORY":"SGP4","TLE_LINE1":"1 45732U 20038C   22136.35261642 -.00000186  00000-0  64012-5 0  9991","APOAPSIS":"548.346"},{"DECAY_DATE":null,"MEAN_ANOMALY":"291.7890","GP_ID":"203696088","INCLINATION":"53.0549","LAUNCH_DATE":"2020-06-13","NORAD_CAT_ID":"45733","CENTER_NAME":"EARTH","RCS_SIZE":"LARGE","OBJECT_ID":"2020-038D","REF_FRAME":"TEME","OBJECT_NAME":"STARLINK-1467","SITE":"AFETR","TLE_LINE2":"2 45733  53.0549  11.5212 0001374  68.3246 291.7890 15.06402390106188","RA_OF_ASC_NODE":"11.5212","REV_AT_EPOCH":"10618","COUNTRY_CODE":"US","OBJECT_TYPE":"PAYLOAD","PERIAPSIS":"546.255","ELEMENT_SET_NO":"999","BSTAR":"0.00015396000000","CLASSIFICATION_TYPE":"U","APOAPSIS":"548.158","TLE_LINE1":"1 45733U 20038D   22136.35998527  .00002013  00000-0  15396-3 0  9990","FILE":"3448591","MEAN_ELEMENT_THEORY":"SGP4","EPHEMERIS_TYPE":"0","MEAN_MOTION":"15.06402390","SEMIMAJOR_AXIS":"6925.341","ECCENTRICITY":"0.00013740","PERIOD":"95.592","MEAN_MOTION_DOT":"0.00002013","TIME_SYSTEM":"UTC","EPOCH":"2022-05-16T08:38:22.727328","MEAN_MOTION_DDOT":"0.0000000000000","ARG_OF_PERICENTER":"68.3246"},{"MEAN_MOTION":"15.06377538","SEMIMAJOR_AXIS":"6925.417","ECCENTRICITY":"0.00018230","PERIOD":"95.594","MEAN_MOTION_DDOT":"0.0000000000000","ARG_OF_PERICENTER":"52.2415","MEAN_MOTION_DOT":"-0.00002612","EPOCH":"2022-05-16T17:45:06.789888","TIME_SYSTEM":"UTC","FILE":"3448756","EPHEMERIS_TYPE":"0","MEAN_ELEMENT_THEORY":"SGP4","APOAPSIS":"548.545","TLE_LINE1":"1 45734U 20038E   22136.73966192 -.00002612  00000-0 -15657-3 0  9993","TLE_LINE2":"2 45734  53.0557   9.8262 0001823  52.2415 307.8739 15.06377538107358","SITE":"AFETR","RA_OF_ASC_NODE":"9.8262","RCS_SIZE":"LARGE","REF_FRAME":"TEME","OBJECT_ID":"2020-038E","OBJECT_NAME":"STARLINK-1468","BSTAR":"-0.00015657000000","ELEMENT_SET_NO":"999","CLASSIFICATION_TYPE":"U","REV_AT_EPOCH":"10735","OBJECT_TYPE":"PAYLOAD","COUNTRY_CODE":"US","PERIAPSIS":"546.020","DECAY_DATE":null,"MEAN_ANOMALY":"307.8739","CENTER_NAME":"EARTH","GP_ID":"203704764","LAUNCH_DATE":"2020-06-13","INCLINATION":"53.0557","NORAD_CAT_ID":"45734"},{"SEMIMAJOR_AXIS":"6925.335","PERIOD":"95.592","ECCENTRICITY":"0.00014970","MEAN_MOTION":"15.06404462","TIME_SYSTEM":"UTC","EPOCH":"2022-05-16T09:04:55.331616","MEAN_MOTION_DOT":"0.00003131","MEAN_MOTION_DDOT":"0.0000000000000","ARG_OF_PERICENTER":"71.6433","APOAPSIS":"548.237","TLE_LINE1":"1 45735U 20038F   22136.37841819  .00003131  00000-0  22897-3 0  9991","MEAN_ELEMENT_THEORY":"SGP4","FILE":"3448591","EPHEMERIS_TYPE":"0","OBJECT_NAME":"STARLINK-1471","RCS_SIZE":"LARGE","OBJECT_ID":"2020-038F","REF_FRAME":"TEME","SITE":"AFETR","TLE_LINE2":"2 45735  53.0560  11.4448 0001497  71.6433 288.4718 15.06404462106188","RA_OF_ASC_NODE":"11.4448","OBJECT_TYPE":"PAYLOAD","COUNTRY_CODE":"US","PERIAPSIS":"546.163","REV_AT_EPOCH":"10618","CLASSIFICATION_TYPE":"U","BSTAR":"0.00022897000000","ELEMENT_SET_NO":"999","DECAY_DATE":null,"MEAN_ANOMALY":"288.4718","NORAD_CAT_ID":"45735","GP_ID":"203695596","INCLINATION":"53.0560","LAUNCH_DATE":"2020-06-13","CENTER_NAME":"EARTH"},{"RA_OF_ASC_NODE":"350.2343","SITE":"AFETR","TLE_LINE2":"2 45736  53.0629 350.2343 0002758 142.7901 217.3293 15.37043685106486","OBJECT_NAME":"STARLINK-1472","OBJECT_ID":"2020-038G","REF_FRAME":"TEME","RCS_SIZE":"LARGE","CLASSIFICATION_TYPE":"U","BSTAR":"0.00032044000000","ELEMENT_SET_NO":"999","OBJECT_TYPE":"PAYLOAD","COUNTRY_CODE":"US","PERIAPSIS":"452.974","REV_AT_EPOCH":"10648","MEAN_ANOMALY":"217.3293","DECAY_DATE":null,"CENTER_NAME":"EARTH","NORAD_CAT_ID":"45736","INCLINATION":"53.0629","GP_ID":"203695848","LAUNCH_DATE":"2020-06-13","PERIOD":"93.686","ECCENTRICITY":"0.00027580","SEMIMAJOR_AXIS":"6832.994","MEAN_MOTION":"15.37043685","MEAN_MOTION_DDOT":"0.0000000000000","ARG_OF_PERICENTER":"142.7901","TIME_SYSTEM":"UTC","EPOCH":"2022-05-16T07:19:53.688864","MEAN_MOTION_DOT":"0.00011415","EPHEMERIS_TYPE":"0","FILE":"3448591","MEAN_ELEMENT_THEORY":"SGP4","TLE_LINE1":"1 45736U 20038G   22136.30548251  .00011415  00000-0  32044-3 0  9998","APOAPSIS":"456.743"},{"MEAN_ANOMALY":"294.9871","DECAY_DATE":null,"INCLINATION":"53.0571","GP_ID":"203704268","LAUNCH_DATE":"2020-06-13","NORAD_CAT_ID":"45738","CENTER_NAME":"EARTH","REF_FRAME":"TEME","OBJECT_ID":"2020-038J","RCS_SIZE":"LARGE","OBJECT_NAME":"STARLINK-1474","RA_OF_ASC_NODE":"9.4071","SITE":"AFETR","TLE_LINE2":"2 45738  53.0571   9.4071 0001623  65.1287 294.9871 15.06402457107374","REV_AT_EPOCH":"10737","COUNTRY_CODE":"US","OBJECT_TYPE":"PAYLOAD","PERIAPSIS":"546.082","ELEMENT_SET_NO":"999","BSTAR":"0.00012452000000","CLASSIFICATION_TYPE":"U","TLE_LINE1":"1 45738U 20038J   22136.83179422  .00001574  00000-0  12452-3 0  9994","APOAPSIS":"548.330","MEAN_ELEMENT_THEORY":"SGP4","FILE":"3448756","EPHEMERIS_TYPE":"0","MEAN_MOTION":"15.06402457","ECCENTRICITY":"0.00016230","PERIOD":"95.592","SEMIMAJOR_AXIS":"6925.341","MEAN_MOTION_DOT":"0.00001574","EPOCH":"2022-05-16T19:57:47.020608","TIME_SYSTEM":"UTC","MEAN_MOTION_DDOT":"0.0000000000000","ARG_OF_PERICENTER":"65.1287"},{"REV_AT_EPOCH":"10677","COUNTRY_CODE":"US","OBJECT_TYPE":"PAYLOAD","PERIAPSIS":"546.098","ELEMENT_SET_NO":"999","BSTAR":"0.00000284010000","CLASSIFICATION_TYPE":"U","RCS_SIZE":"LARGE","REF_FRAME":"TEME","OBJECT_ID":"2020-038K","OBJECT_NAME":"STARLINK-1475","TLE_LINE2":"2 45739  53.0577 330.5235 0001649  66.9290 293.1872 15.06391272106779","SITE":"AFETR","RA_OF_ASC_NODE":"330.5235","GP_ID":"203694847","INCLINATION":"53.0577","LAUNCH_DATE":"2020-06-13","NORAD_CAT_ID":"45739","CENTER_NAME":"EARTH","DECAY_DATE":null,"MEAN_ANOMALY":"293.1872","MEAN_MOTION_DOT":"-0.00000239","EPOCH":"2022-05-16T13:56:51.817056","TIME_SYSTEM":"UTC","MEAN_MOTION_DDOT":"0.0000000000000","ARG_OF_PERICENTER":"66.9290","MEAN_MOTION":"15.06391272","SEMIMAJOR_AXIS":"6925.375","ECCENTRICITY":"0.00016490","PERIOD":"95.593","APOAPSIS":"548.382","TLE_LINE1":"1 45739U 20038K   22136.58115529 -.00000239  00000-0  28401-5 0  9996","FILE":"3448591","MEAN_ELEMENT_THEORY":"SGP4","EPHEMERIS_TYPE":"0"}];
